{"type": "FeatureCollection", "features": [ {"type": "Feature", "properties": {"norad_id": 39019, "name": "PLEIADES 1B", "group": "resource", "lat": 28.349342597739987, "lon": -103.69008100659259, "alt_km": 696.1975706567018, "timestamp": "2025-12-25T09:48:51.943190+00:00", "meta": {"OBJECT_NAME": "PLEIADES 1B", "OBJECT_ID": "2012-068A", "EPOCH": "2025-12-25T04:11:02.946624", "MEAN_MOTION": 14.58563442, "ECCENTRICITY": 0.0001148, "INCLINATION": 98.1778, "RA_OF_ASC_NODE": 71.6291, "ARG_OF_PERICENTER": 87.4167, "MEAN_ANOMALY": 272.7164, "EPHEMERIS_TYPE": 0, "CLASSIFICATION_TYPE": "U", "NORAD_CAT_ID": 39019, "ELEMENT_SET_NO": 999, "REV_AT_EPOCH": 69548, "BSTAR": 6.698e-05, "MEAN_MOTION_DOT": 2.66e-06, "MEAN_MOTION_DDOT": 0}, "tle": {"line1": "1 39019U 12068A   25359.17433966  .00000266  00000+0  66980-4 0  9998", "line2": "2 39019  98.1778  71.6291 0001148  87.4167 272.7164 14.58563442695480"}}, "geometry": {"type": "Point", "coordinates": [-103.69008100659259, 28.349342597739987]}}, {"type": "Feature", "properties": {"norad_id": 39030, "name": "GOKTURK 2", "group": "resource", "lat": 47.86175835351841, "lon": -168.14768783688632, "alt_km": 639.3920303729501, "timestamp": "2025-12-25T09:48:51.943200+00:00", "meta": {"OBJECT_NAME": "GOKTURK 2", "OBJECT_ID": "2012-073A", "EPOCH": "2025-12-25T04:42:44.309088", "MEAN_MOTION": 14.75307813, "ECCENTRICITY": 0.0001438, "INCLINATION": 97.6884, "RA_OF_ASC_NODE": 200.237, "ARG_OF_PERICENTER": 107.32, "MEAN_ANOMALY": 252.8167, "EPHEMERIS_TYPE": 0, "CLASSIFICATION_TYPE": "U", "NORAD_CAT_ID": 39030, "ELEMENT_SET_NO": 999, "REV_AT_EPOCH": 69885, "BSTAR": 0.00012299, "MEAN_MOTION_DOT": 7.86e-06, "MEAN_MOTION_DDOT": 0}, "tle": {"line1": "1 39030U 12073A   25359.19634617  .00000786  00000+0  12299-3 0  9995", "line2": "2 39030  97.6884 200.2370 0001438 107.3200 252.8167 14.75307813698858"}}, "geometry": {"type": "Point", "coordinates": [-168.14768783688632, 47.86175835351841]}}, {"type": "Feature", "properties": {"norad_id": 39084, "name": "LANDSAT 8", "group": "resource", "lat": -73.37484333612005, "lon": -141.60403511617918, "alt_km": 710.5194499682957, "timestamp": "2025-12-25T09:48:51.943209+00:00", "meta": {"OBJECT_NAME": "LANDSAT 8", "OBJECT_ID": "2013-008A", "EPOCH": "2025-12-25T03:42:04.904352", "MEAN_MOTION": 14.57114699, "ECCENTRICITY": 0.0001052, "INCLINATION": 98.2056, "RA_OF_ASC_NODE": 67.0436, "ARG_OF_PERICENTER": 93.2647, "MEAN_ANOMALY": 266.8672, "EPHEMERIS_TYPE": 0, "CLASSIFICATION_TYPE": "U", "NORAD_CAT_ID": 39084, "ELEMENT_SET_NO": 999, "REV_AT_EPOCH": 67255, "BSTAR": 0.00010246, "MEAN_MOTION_DOT": 4.16e-06, "MEAN_MOTION_DDOT": 0}, "tle": {"line1": "1 39084U 13008A   25359.15422343  .00000416  00000+0  10246-3 0  9990", "line2": "2 39084  98.2056  67.0436 0001052  93.2647 266.8672 14.57114699672550"}}, "geometry": {"type": "Point", "coordinates": [-141.60403511617918, -73.37484333612005]}}, {"type": "Feature", "properties": {"norad_id": 39086, "name": "SARAL", "group": "resource", "lat": -31.977021453879235, "lon": -2.2155755662486416, "alt_km": 789.8508913668566, "timestamp": "2025-12-25T09:48:51.943219+00:00", "meta": {"OBJECT_NAME": "SARAL", "OBJECT_ID": "2013-009A", "EPOCH": "2025-12-25T03:47:55.803264", "MEAN_MOTION": 14.3276122, "ECCENTRICITY": 0.0002959, "INCLINATION": 98.5503, "RA_OF_ASC_NODE": 182.9266, "ARG_OF_PERICENTER": 85.2941, "MEAN_ANOMALY": 274.8581, "EPHEMERIS_TYPE": 0, "CLASSIFICATION_TYPE": "U", "NORAD_CAT_ID": 39086, "ELEMENT_SET_NO": 999, "REV_AT_EPOCH": 67068, "BSTAR": 6.1038e-05, "MEAN_MOTION_DOT": 1.23e-06, "MEAN_MOTION_DDOT": 0}, "tle": {"line1": "1 39086U 13009A   25359.15828476  .00000123  00000+0  61038-4 0  9991", "line2": "2 39086  98.5503 182.9266 0002959  85.2941 274.8581 14.32761220670686"}}, "geometry": {"type": "Point", "coordinates": [-2.2155755662486416, -31.977021453879235]}}, {"type": "Feature", "properties": {"norad_id": 39150, "name": "GAOFEN-1", "group": "resource", "lat": -2.5735581620623718, "lon": -110.5159295356213, "alt_km": 640.9514257325745, "timestamp": "2025-12-25T09:48:51.943229+00:00", "meta": {"OBJECT_NAME": "GAOFEN-1", "OBJECT_ID": "2013-018A", "EPOCH": "2025-12-25T04:06:47.059200", "MEAN_MOTION": 14.76501705, "ECCENTRICITY": 0.001853, "INCLINATION": 97.931, "RA_OF_ASC_NODE": 69.6098, "ARG_OF_PERICENTER": 105.4818, "MEAN_ANOMALY": 254.844, "EPHEMERIS_TYPE": 0, "CLASSIFICATION_TYPE": "U", "NORAD_CAT_ID": 39150, "ELEMENT_SET_NO": 999, "REV_AT_EPOCH": 68256, "BSTAR": 0.00016233, "MEAN_MOTION_DOT": 1.083e-05, "MEAN_MOTION_DDOT": 0}, "tle": {"line1": "1 39150U 13018A   25359.17137800  .00001083  00000+0  16233-3 0  9991", "line2": "2 39150  97.9310  69.6098 0018530 105.4818 254.8440 14.76501705682561"}}, "geometry": {"type": "Point", "coordinates": [-110.5159295356213, -2.5735581620623718]}}, {"type": "Feature", "properties": {"norad_id": 39160, "name": "VNREDSAT 1", "group": "resource", "lat": 74.88502669157572, "lon": 23.14766790310194, "alt_km": 669.3184712345992, "timestamp": "2025-12-25T09:48:51.943239+00:00", "meta": {"OBJECT_NAME": "VNREDSAT 1", "OBJECT_ID": "2013-021B", "EPOCH": "2025-12-25T04:32:45.699648", "MEAN_MOTION": 14.64940198, "ECCENTRICITY": 0.0001171, "INCLINATION": 97.9352, "RA_OF_ASC_NODE": 54.027, "ARG_OF_PERICENTER": 84.4255, "MEAN_ANOMALY": 275.7082, "EPHEMERIS_TYPE": 0, "CLASSIFICATION_TYPE": "U", "NORAD_CAT_ID": 39160, "ELEMENT_SET_NO": 999, "REV_AT_EPOCH": 67481, "BSTAR": 0.00010905, "MEAN_MOTION_DOT": 5.38e-06, "MEAN_MOTION_DDOT": 0}, "tle": {"line1": "1 39160U 13021B   25359.18941782  .00000538  00000+0  10905-3 0  9993", "line2": "2 39160  97.9352  54.0270 0001171  84.4255 275.7082 14.64940198674815"}}, "geometry": {"type": "Point", "coordinates": [23.14766790310194, 74.88502669157572]}}, {"type": "Feature", "properties": {"norad_id": 39227, "name": "ARIRANG-5 (KOMPSAT-5)", "group": "resource", "lat": 21.564857087574506, "lon": 6.5639761508909835, "alt_km": 554.2057542943785, "timestamp": "2025-12-25T09:48:51.943250+00:00", "meta": {"OBJECT_NAME": "ARIRANG-5 (KOMPSAT-5)", "OBJECT_ID": "2013-042A", "EPOCH": "2025-12-24T23:32:12.060096", "MEAN_MOTION": 15.04484269, "ECCENTRICITY": 0.0003053, "INCLINATION": 97.6163, "RA_OF_ASC_NODE": 183.1105, "ARG_OF_PERICENTER": 33.765, "MEAN_ANOMALY": 326.377, "EPHEMERIS_TYPE": 0, "CLASSIFICATION_TYPE": "U", "NORAD_CAT_ID": 39227, "ELEMENT_SET_NO": 999, "REV_AT_EPOCH": 67766, "BSTAR": 0.00018467783, "MEAN_MOTION_DOT": 2.524e-05, "MEAN_MOTION_DDOT": 0}, "tle": {"line1": "1 39227U 13042A   25358.98069514  .00002524  00000+0  18468-3 0  9990", "line2": "2 39227  97.6163 183.1105 0003053  33.7650 326.3770 15.04484269677664"}}, "geometry": {"type": "Point", "coordinates": [6.5639761508909835, 21.564857087574506]}}, {"type": "Feature", "properties": {"norad_id": 39418, "name": "SKYSAT-A", "group": "resource", "lat": 43.99388334467793, "lon": -123.55128053332948, "alt_km": 518.9162622116664, "timestamp": "2025-12-25T09:48:51.943260+00:00", "meta": {"OBJECT_NAME": "SKYSAT-A", "OBJECT_ID": "2013-066C", "EPOCH": "2025-12-25T02:51:41.607648", "MEAN_MOTION": 15.1169067, "ECCENTRICITY": 0.0021644, "INCLINATION": 97.4085, "RA_OF_ASC_NODE": 48.9509, "ARG_OF_PERICENTER": 192.0713, "MEAN_ANOMALY": 168.0001, "EPHEMERIS_TYPE": 0, "CLASSIFICATION_TYPE": "U", "NORAD_CAT_ID": 39418, "ELEMENT_SET_NO": 999, "REV_AT_EPOCH": 66217, "BSTAR": 0.00020529, "MEAN_MOTION_DOT": 3.45e-05, "MEAN_MOTION_DDOT": 0}, "tle": {"line1": "1 39418U 13066C   25359.11923157  .00003450  00000+0  20529-3 0  9996", "line2": "2 39418  97.4085  48.9509 0021644 192.0713 168.0001 15.11690670662179"}}, "geometry": {"type": "Point", "coordinates": [-123.55128053332948, 43.99388334467793]}}, {"type": "Feature", "properties": {"norad_id": 39419, "name": "DUBAISAT-2", "group": "resource", "lat": 48.862885086973506, "lon": 178.03833783004546, "alt_km": 541.8084268079701, "timestamp": "2025-12-25T09:48:51.943269+00:00", "meta": {"OBJECT_NAME": "DUBAISAT-2", "OBJECT_ID": "2013-066D", "EPOCH": "2025-12-25T04:27:39.613824", "MEAN_MOTION": 15.08475458, "ECCENTRICITY": 0.0009854, "INCLINATION": 97.4465, "RA_OF_ASC_NODE": 349.2105, "ARG_OF_PERICENTER": 272.6069, "MEAN_ANOMALY": 87.4032, "EPHEMERIS_TYPE": 0, "CLASSIFICATION_TYPE": "U", "NORAD_CAT_ID": 39419, "ELEMENT_SET_NO": 999, "REV_AT_EPOCH": 66014, "BSTAR": 0.00042756, "MEAN_MOTION_DOT": 6.611e-05, "MEAN_MOTION_DDOT": 0}, "tle": {"line1": "1 39419U 13066D   25359.18587516  .00006611  00000+0  42756-3 0  9997", "line2": "2 39419  97.4465 349.2105 0009854 272.6069  87.4032 15.08475458660143"}}, "geometry": {"type": "Point", "coordinates": [178.03833783004546, 48.862885086973506]}}, {"type": "Feature", "properties": {"norad_id": 39574, "name": "GPM-CORE", "group": "resource", "lat": 24.365528604029564, "lon": -21.961440238782007, "alt_km": 431.6254045431724, "timestamp": "2025-12-25T09:48:51.943279+00:00", "meta": {"OBJECT_NAME": "GPM-CORE", "OBJECT_ID": "2014-009C", "EPOCH": "2025-12-24T20:43:24.779136", "MEAN_MOTION": 15.44649867, "ECCENTRICITY": 0.00091131, "INCLINATION": 64.9726, "RA_OF_ASC_NODE": 172.0809, "ARG_OF_PERICENTER": 250.5977, "MEAN_ANOMALY": 109.4179, "EPHEMERIS_TYPE": 0, "CLASSIFICATION_TYPE": "U", "NORAD_CAT_ID": 39574, "ELEMENT_SET_NO": 999, "REV_AT_EPOCH": 67088, "BSTAR": 0.00019570194, "MEAN_MOTION_DOT": 8.937e-05, "MEAN_MOTION_DDOT": 0}, "tle": {"line1": "1 39574U 14009C   25358.86348124  .00008937  00000+0  19570-3 0  9992", "line2": "2 39574  64.9726 172.0809 0009113 250.5977 109.4179 15.44649867670884"}}, "geometry": {"type": "Point", "coordinates": [-21.961440238782007, 24.365528604029564]}}]}